{
  "type": "FeatureCollection",
  "name": "Geological_Formations",
  "crs": {
    "type": "name",
    "properties": {
      "name": "urn:ogc:def:crs:OGC:1.3:CRS84"
    }
  },
  "features": [
    {
      "type": "Feature",
      "properties": {
        "mine_id": "Mine A",
        "formation_id": "GEO-01",
        "unit_name": "Manganese Ore Horizon (Gondite Series)",
        "rock_type": "Braunite-Pyrolusite-Gondite Band",
        "favorability": "High",
        "color": "#8B5CF6",
        "description": "Stratiform Mn mineralization associated with gondite and quartzite"
      },
      "geometry": {
        "type": "Polygon",
        "coordinates": [
          [
            [
              79.618,
              21.524
            ],
            [
              79.634,
              21.526
            ],
            [
              79.636,
              21.531
            ],
            [
              79.62,
              21.529
            ],
            [
              79.618,
              21.524
            ]
          ]
        ]
      }
    },
    {
      "type": "Feature",
      "properties": {
        "mine_id": "Mine A",
        "formation_id": "GEO-02",
        "unit_name": "Mansar Schist Formation",
        "rock_type": "Muscovite-Biotite Schist",
        "favorability": "Moderate",
        "color": "#3B82F6",
        "description": "Regional host schist with intermittent secondary manganese enrichment"
      },
      "geometry": {
        "type": "Polygon",
        "coordinates": [
          [
            [
              79.613,
              21.521
            ],
            [
              79.637,
              21.521
            ],
            [
              79.635,
              21.526
            ],
            [
              79.618,
              21.524
            ],
            [
              79.613,
              21.521
            ]
          ]
        ]
      }
    },
    {
      "type": "Feature",
      "properties": {
        "mine_id": "Mine A",
        "formation_id": "GEO-03",
        "unit_name": "Chorbaoli Quartzite Ridge",
        "rock_type": "Quartzite / Sandstone",
        "favorability": "Low",
        "color": "#F59E0B",
        "description": "Hard ridge-forming quartzite; structural hanging wall"
      },
      "geometry": {
        "type": "Polygon",
        "coordinates": [
          [
            [
              79.62,
              21.529
            ],
            [
              79.636,
              21.531
            ],
            [
              79.637,
              21.537
            ],
            [
              79.624,
              21.538
            ],
            [
              79.615,
              21.533
            ],
            [
              79.62,
              21.529
            ]
          ]
        ]
      }
    },
    {
      "type": "Feature",
      "properties": {
        "mine_id": "Mine A",
        "formation_id": "GEO-04",
        "unit_name": "Bichua Calcitic & Dolomitic Marble",
        "rock_type": "Dolomite Marble",
        "favorability": "Low",
        "color": "#10B981",
        "description": "Footwall crystalline limestone and marble"
      },
      "geometry": {
        "type": "Polygon",
        "coordinates": [
          [
            [
              79.614,
              21.511
            ],
            [
              79.634,
              21.511
            ],
            [
              79.634,
              21.519
            ],
            [
              79.614,
              21.519
            ],
            [
              79.614,
              21.511
            ]
          ]
        ]
      }
    },
    {
      "type": "Feature",
      "properties": {
        "mine_id": "Mine B",
        "formation_id": "GEO-B01",
        "unit_name": "East Ridge Gondite Ore Reef",
        "rock_type": "Gondite-Braunite Ore",
        "favorability": "High",
        "color": "#8B5CF6",
        "description": "Stratiform manganese ore reef extension"
      },
      "geometry": {
        "type": "Polygon",
        "coordinates": [
          [
            [
              79.668,
              21.558
            ],
            [
              79.682,
              21.558
            ],
            [
              79.682,
              21.572
            ],
            [
              79.668,
              21.572
            ],
            [
              79.668,
              21.558
            ]
          ]
        ]
      }
    },
    {
      "type": "Feature",
      "properties": {
        "mine_id": "Mine B",
        "formation_id": "GEO-B02",
        "unit_name": "Mansar Phyllite & Host Schist",
        "rock_type": "Quartz-Mica Phyllite",
        "favorability": "Moderate",
        "color": "#3B82F6",
        "description": "Regional metamorphosed pelitic host rock"
      },
      "geometry": {
        "type": "Polygon",
        "coordinates": [
          [
            [
              79.664,
              21.554
            ],
            [
              79.686,
              21.554
            ],
            [
              79.686,
              21.56
            ],
            [
              79.664,
              21.56
            ],
            [
              79.664,
              21.554
            ]
          ]
        ]
      }
    },
    {
      "type": "Feature",
      "properties": {
        "mine_id": "Mine B",
        "formation_id": "GEO-B03",
        "unit_name": "Deep West Carbonate Band",
        "rock_type": "Calcitic Marble & Quartzite",
        "favorability": "Low",
        "color": "#10B981",
        "description": "Footwall metasedimentary sequence"
      },
      "geometry": {
        "type": "Polygon",
        "coordinates": [
          [
            [
              79.642,
              21.544
            ],
            [
              79.663,
              21.544
            ],
            [
              79.663,
              21.566
            ],
            [
              79.642,
              21.566
            ],
            [
              79.642,
              21.544
            ]
          ]
        ]
      }
    }
  ]
}