{
  "type": "FeatureCollection",
  "name": "Concession_Permit_Boundaries",
  "crs": {
    "type": "name",
    "properties": {
      "name": "urn:ogc:def:crs:OGC:1.3:CRS84"
    }
  },
  "features": [
    {
      "type": "Feature",
      "properties": {
        "mine_id": "Mine A",
        "section": "North Block",
        "lease_area_ha": 340.5,
        "status": "Active Concession",
        "mineral": "Manganese Ore"
      },
      "geometry": {
        "type": "Polygon",
        "coordinates": [
          [
            [
              79.612,
              21.52
            ],
            [
              79.638,
              21.52
            ],
            [
              79.638,
              21.536
            ],
            [
              79.626,
              21.539
            ],
            [
              79.612,
              21.534
            ],
            [
              79.612,
              21.52
            ]
          ]
        ]
      }
    },
    {
      "type": "Feature",
      "properties": {
        "mine_id": "Mine A",
        "section": "South Pit",
        "lease_area_ha": 210.0,
        "status": "Active Concession",
        "mineral": "Manganese Ore"
      },
      "geometry": {
        "type": "Polygon",
        "coordinates": [
          [
            [
              79.615,
              21.51
            ],
            [
              79.633,
              21.51
            ],
            [
              79.633,
              21.52
            ],
            [
              79.615,
              21.52
            ],
            [
              79.615,
              21.51
            ]
          ]
        ]
      }
    },
    {
      "type": "Feature",
      "properties": {
        "mine_id": "Mine B",
        "section": "East Ridge",
        "lease_area_ha": 280.0,
        "status": "Active Concession",
        "mineral": "Manganese Ore"
      },
      "geometry": {
        "type": "Polygon",
        "coordinates": [
          [
            [
              79.664,
              21.554
            ],
            [
              79.686,
              21.554
            ],
            [
              79.686,
              21.576
            ],
            [
              79.664,
              21.576
            ],
            [
              79.664,
              21.554
            ]
          ]
        ]
      }
    },
    {
      "type": "Feature",
      "properties": {
        "mine_id": "Mine B",
        "section": "Deep West",
        "lease_area_ha": 230.0,
        "status": "Active Concession",
        "mineral": "Manganese Ore"
      },
      "geometry": {
        "type": "Polygon",
        "coordinates": [
          [
            [
              79.642,
              21.544
            ],
            [
              79.663,
              21.544
            ],
            [
              79.663,
              21.566
            ],
            [
              79.642,
              21.566
            ],
            [
              79.642,
              21.544
            ]
          ]
        ]
      }
    }
  ]
}